STARLINK-30344
1 57737U 23131F   26090.90275163  .00010012  00000+0  70068-3 0  9996
2 57737  43.0025  50.4130 0001174 252.9599 107.1116 15.05360860143270
